[{"OBJECT_NAME":"TIANMU-1 09","OBJECT_ID":"2023-101C","EPOCH":"2026-03-09T22:17:34.703232","MEAN_MOTION":15.29080822,"ECCENTRICITY":0.00049013,"INCLINATION":97.267,"RA_OF_ASC_NODE":121.1263,"ARG_OF_PERICENTER":139.4293,"MEAN_ANOMALY":220.7314,"EPHEMERIS_TYPE":0,"CLASSIFICATION_TYPE":"U","NORAD_CAT_ID":57401,"ELEMENT_SET_NO":999,"REV_AT_EPOCH":14647,"BSTAR":0.00030540035,"MEAN_MOTION_DOT":8.553e-5,"MEAN_MOTION_DDOT":0},{"OBJECT_NAME":"STARLINK-32945","OBJECT_ID":"2025-039Q","EPOCH":"2026-03-09T04:46:38.317440","MEAN_MOTION":15.27582057,"ECCENTRICITY":0.00014899,"INCLINATION":43.0005,"RA_OF_ASC_NODE":15.3895,"ARG_OF_PERICENTER":247.6931,"MEAN_ANOMALY":112.3763,"EPHEMERIS_TYPE":0,"CLASSIFICATION_TYPE":"U","NORAD_CAT_ID":63118,"ELEMENT_SET_NO":999,"REV_AT_EPOCH":5799,"BSTAR":0.00090334874,"MEAN_MOTION_DOT":0.00024681,"MEAN_MOTION_DDOT":0}]
